satname,norad_id,inclination_deg,eccentricity,mean_motion_rev_per_day,perigee_km,apogee_km,l1,l2
STARLINK-1143,45179,53.0486,0.0007158,15.6137159,378.8540980658954,388.5343356359399,1 45179U 20012B   26062.91670139  .00121219  00000+0  13808-2 0  9990,2 45179  53.0486 358.1178 0007158  78.1265 174.8202 15.61371590  5936
STARLINK-1202,45183,53.1614,0.0001138,15.30198867,474.4385405047087,475.998364205665,1 45183U 20012F   26062.41828723  .00000831  00000+0  40181-4 0  9996,2 45183  53.1614  68.3802 0001138  93.8607 266.2524 15.30198867333998
STARLINK-1216,45185,53.1617,0.0001661,15.30193702,474.09552927439836,476.3722190787994,1 45185U 20012H   26062.40880640 -.00000104  00000+0  86178-5 0  9994,2 45185  53.1617  68.4045 0001661 106.0395 254.0789 15.30193702333930
STARLINK-1225,45187,53.1605,0.0001614,15.30206371,474.0899188739468,476.3021747814637,1 45187U 20012K   26062.34039219  .00002170  00000+0  85358-4 0  9999,2 45187  53.1605  69.1608 0001614 101.4550 258.6632 15.30206371333969
STARLINK-1230,45189,53.1611,0.0001306,15.301834,474.3695802217708,476.159688728696,1 45189U 20012M   26062.28457757 -.00000623  00000+0 -89240-5 0  9993,2 45189  53.1611  69.4752 0001306 107.6564 252.4579 15.30183400331183
STARLINK-1234,45190,53.0449,0.0003451,15.60750098,383.15501493907595,387.8232697025069,1 45190U 20012N   26062.91670139  .00126894  00000+0  14802-2 0  9992,2 45190  53.0449 353.4913 0003451 302.2262 199.1702 15.60750098  5986
STARLINK-1269,45197,53.1605,0.0001551,15.302305,474.0610626479611,476.1869442112238,1 45197U 20012V   26062.28139400  .00012280  00000+0  42564-3 0  9990,2 45197  53.1605  69.3535 0001551  80.5951 279.5225 15.30230500333931
STARLINK-1154,45198,53.0494,0.0007202,15.44792473,427.08326545641194,436.8925693874653,1 45198U 20012W   26062.34837340  .00088874  00000+0  18545-2 0  9999,2 45198  53.0494  40.2257 0007202  60.3114 299.8608 15.44792473334312
STARLINK-1199,45201,53.1568,0.0001543,15.29383871,476.59511868500704,478.7108154688476,1 45201U 20012Z   26062.37776846  .00012715  00000+0  45180-3 0  9997,2 45201  53.1568  53.1200 0001543  87.6948 272.4229 15.29383871334193
STARLINK-1209,45206,53.0489,0.0005933,15.49685812,413.6125084812538,421.6763827446175,1 45206U 20012AE  26062.22863088  .00101526  00000+0  17849-2 0  9990,2 45206  53.0489   4.4659 0005933 261.6093  98.4242 15.49685812333910
STARLINK-1210,45207,52.9973,0.0006812,16.38932054,164.18526463801663,173.1046003428428,1 45207U 20012AF  26062.90542846  .07513391  12372-4  61765-3 0  9993,2 45207  52.9973 288.0218 0006812 290.7312  69.3003 16.38932054335996
STARLINK-1231,45212,53.0516,0.0004402,15.2038088,501.66104642061873,507.7206880749427,1 45212U 20012AL  26062.23945150  .00050268  00000+0  22780-2 0  9995,2 45212  53.0516  45.3979 0004402  54.0038 306.1365 15.20380880334248
STARLINK-1271,45217,53.1578,0.000132,15.298129,475.46632888441854,477.27591902914355,1 45217U 20012AR  26062.50980220  .00118216  00000+0  39878-2 0  9991,2 45217  53.1578  52.6639 0001320  70.2045 289.9098 15.29812900334210
STARLINK-1191,45222,53.1588,0.0001438,15.30211327,474.19574208340964,476.1667564118943,1 45222U 20012AW  26062.13799610  .00008338  00000+0  29321-3 0  9993,2 45222  53.1588  29.2554 0001438  91.9506 268.1659 15.30211327334518
STARLINK-1212,45223,53.051,0.0005903,15.50714994,410.62751195800956,418.6470612807934,1 45223U 20012AX  26062.79564593  .00144292  00000+0  24297-2 0  9992,2 45223  53.0510  18.4317 0005903  85.9294 274.2389 15.50714994334729
STARLINK-1215,45225,53.1601,0.0001157,15.30215597,474.3755725379133,475.96142743061046,1 45225U 20012AZ  26062.32016119  .00006886  00000+0  24427-3 0  9991,2 45225  53.1601  27.8900 0001157  93.5215 266.5918 15.30215597334501
STARLINK-1221,45227,53.0665,0.0002976,15.4163785,439.2455773535021,443.3044913963613,1 45227U 20012BB  26062.04032701  .00018490  00000+0  44082-3 0  9990,2 45227  53.0665 301.1183 0002976  38.1606 321.9608 15.41637850335686
STARLINK-1222,45228,53.0574,0.000398,15.490625,416.7618685631696,422.1727615979735,1 45228U 20012BC  26062.23443732  .00030082  00000+0  55144-3 0  9994,2 45228  53.0574  13.7482 0003980  66.7587 293.3839 15.49062500334628
STARLINK-1226,45229,53.1611,0.0001662,15.30193843,474.09442300384126,476.3724833424758,1 45229U 20012BD  26062.21908771 -.00000421  00000+0 -20859-5 0  9995,2 45229  53.1611  28.6704 0001662 115.3221 244.7952 15.30193843334424
STARLINK-1227,45230,53.161,0.0001393,15.31033435,471.77338621366835,473.68203712233935,1 45230U 20012BE  26062.17887596  .00000573  00000+0  30790-4 0  9993,2 45230  53.1610  29.1462 0001393  85.5554 274.5606 15.31033435334530
STARLINK-1246,45235,53.1598,0.000135,15.30218543,474.2345088677921,476.0848989778515,1 45235U 20012BK  26062.29081023  .00005077  00000+0  18330-3 0  9991,2 45235  53.1598  68.9715 0001350 111.4747 248.6398 15.30218543333991
STARLINK-1270,45237,53.0506,0.0004044,15.45716623,426.5203141525126,432.02614754722435,1 45237U 20012BM  26062.24869401  .00091066  00000+0  18416-2 0  9999,2 45237  53.0506  18.2954 0004044  62.6053 297.5364 15.45716623334674
STARLINK-1279,45360,53.0428,0.0001094,15.56197387,397.9328219558138,399.4155882474897,1 45360U 20019A   26062.46958559  .00107285  00000+0  14905-2 0  9990,2 45360  53.0428 128.8410 0001094 147.3845 212.7234 15.56197387329706
STARLINK-1301,45361,53.0444,0.0001975,15.63776161,375.42670554117103,378.09489017132455,1 45361U 20019B   26062.91670139  .00106485  00000+0  11083-2 0  9991,2 45361  53.0444 132.3853 0001975 184.8821 208.9928 15.63776161  5871
STARLINK-1262,45366,53.1244,0.0001501,15.22505273,497.25469493493983,499.31899737355525,1 45366U 20019G   26062.91670139  .00861536  00000+0  34144-1 0  9993,2 45366  53.1244 191.7558 0001501  65.3900 347.7813 15.22505273  5629
STARLINK-1273,45367,53.0525,9.73e-05,15.43446147,435.28458118177423,436.6106020433008,1 45367U 20019H   26062.70813524  .00031301  00000+0  69517-3 0  9991,2 45367  53.0525 183.2493 0000973 333.2784  26.8170 15.43446147328978
STARLINK-1276,45368,53.0559,0.0001318,15.06425647,546.2202041123,548.0457052723568,1 45368U 20019J   26062.51440083  .00000226  00000+0  34044-4 0  9997,2 45368  53.0559 194.3366 0001318 123.7756 236.3359 15.06425647328803
STARLINK-1277,45369,53.0513,0.0002483,15.47722432,421.7016531843883,425.07929172720924,1 45369U 20019K   26062.91670139  .00069187  00000+0  13115-2 0  9994,2 45369  53.0513 180.2436 0002483 355.3568 182.9549 15.47722432  5888
STARLINK-1281,45370,53.1241,0.000156,15.22272815,497.91403786590945,500.0597005130976,1 45370U 20019L   26062.91670139  .01417460  00000+0  55776-1 0  9996,2 45370  53.1241 191.9549 0001560  83.5222 319.6499 15.22272815  5785
STARLINK-1300,45374,53.1307,0.0001029,15.24009099,493.0554124567634,494.46964938022575,1 45374U 20019Q   26062.91670139  .01544571  00000+0  57291-1 0  9998,2 45374  53.1307 191.9706 0001029  75.8478 198.9013 15.24009099  5621
STARLINK-1302,45375,53.0534,0.000248,15.4828145,420.06684132257215,423.4395868687643,1 45375U 20019R   26062.52311999  .00116845  00000+0  21534-2 0  9992,2 45375  53.0534 181.4304 0002480 289.3488  70.7251 15.48281450328983
STARLINK-1304,45376,53.0507,0.0001648,15.47130418,424.004267148337,426.24662245014315,1 45376U 20019S   26062.91670139  .00071021  00000+0  13737-2 0  9992,2 45376  53.0507 177.1046 0001648 279.3748 183.7188 15.47130418  5838
STARLINK-1305,45377,53.0464,0.0002814,15.51682704,409.90208300025824,413.7234667335533,1 45377U 20019T   26062.65832277  .00107890  00000+0  17660-2 0  9990,2 45377  53.0464 161.3082 0002814 106.8760 253.2557 15.51682704329286
STARLINK-1319,45379,53.0456,0.0001786,15.64254613,374.1771540535674,376.5895115164385,1 45379U 20019V   26062.91670139  .00469865  00000+0  45697-2 0  9992,2 45379  53.0456 158.0406 0001786  67.5889 258.0694 15.64254613  5963
STARLINK-1266,45383,53.0513,0.0003101,15.44382526,431.08080832315954,435.3051951902489,1 45383U 20019Z   26062.70723490  .00093973  00000+0  19879-2 0  9999,2 45383  53.0513 161.4514 0003101 350.9620   9.1329 15.44382526329271
STARLINK-1267,45384,53.0528,0.0003875,15.48417426,418.72031178841553,423.9899181775263,1 45384U 20019AA  26062.55530822  .00039968  00000+0  74567-3 0  9998,2 45384  53.0528 156.4004 0003875 223.6167 136.4535 15.48417426329338
STARLINK-1272,45386,53.0447,0.0002241,15.54962669,400.74166092579617,403.78063537579783,1 45386U 20019AC  26062.62951462  .00055120  00000+0  81008-3 0  9991,2 45386  53.0447 139.1156 0002241 134.1456 225.9739 15.54962669329587
STARLINK-1274,45387,53.0288,0.0004686,15.45919355,425.4883947163953,431.8677417983663,1 45387U 20019AD  26062.58272375  .00047854  00000+0  97039-3 0  9992,2 45387  53.0288 132.0980 0004686 215.5982 144.4712 15.45919355329671
STARLINK-1280,45388,53.0453,0.000132,15.6469324,373.22984277573505,375.0124389249204,1 45388U 20019AE  26062.64824465  .00083430  00000+0  84105-3 0  9993,2 45388  53.0453 152.1448 0001320 106.3839 253.7320 15.64693240329399
STARLINK-1283,45389,53.0454,0.000454,15.54894056,399.38222167259846,405.53900430519207,1 45389U 20019AF  26062.48857798  .00110288  00000+0  16063-2 0  9990,2 45389  53.0454 140.0066 0004540 215.9696 144.1009 15.54894056329561
STARLINK-1284,45390,53.0503,0.0002419,15.50580208,413.3876601668262,416.6741948101453,1 45390U 20019AG  26062.68635729  .00107117  00000+0  18238-2 0  9995,2 45390  53.0503 159.8490 0002419 351.9195   8.1773 15.50580208329299
STARLINK-1297,45395,53.0487,0.0003442,15.52808381,406.1949160904205,410.86685826395296,1 45395U 20019AM  26062.70620035  .00108321  00000+0  17026-2 0  9999,2 45395  53.0487 159.5636 0003442 357.0036   3.0952 15.52808381328482
STARLINK-1307,45397,53.0557,0.0001443,15.49642398,416.79072023329627,418.7520193888249,1 45397U 20019AP  26062.55662998  .00033501  00000+0  60071-3 0  9994,2 45397  53.0557 160.1638 0001443  37.3459 322.7649 15.49642398329102
